{"fetched_at":"2026-07-18T17:29:34.864Z","source":"https://celestrak.org/NORAD/elements/gp.php?GROUP=qianfan&FORMAT=JSON","constellation":"qianfan","records":[{"OBJECT_NAME":"QIANFAN-81","OBJECT_ID":"2025-046J","EPOCH":"2026-07-18T05:39:34.053120","CLASSIFICATION_TYPE":"U","MEAN_MOTION":13.51024726,"ECCENTRICITY":0.00144023,"INCLINATION":88.9724,"RA_OF_ASC_NODE":297.3098,"ARG_OF_PERICENTER":204.3044,"MEAN_ANOMALY":155.743,"EPHEMERIS_TYPE":0,"NORAD_CAT_ID":63167,"ELEMENT_SET_NO":999,"REV_AT_EPOCH":7685,"BSTAR":0.00016780507,"MEAN_MOTION_DOT":0.0000012,"MEAN_MOTION_DDOT":0},{"OBJECT_NAME":"QIANFAN-82","OBJECT_ID":"2025-046K","EPOCH":"2026-07-18T06:27:02.009664","CLASSIFICATION_TYPE":"U","MEAN_MOTION":13.51019234,"ECCENTRICITY":0.00120147,"INCLINATION":88.9724,"RA_OF_ASC_NODE":297.3505,"ARG_OF_PERICENTER":209.7658,"MEAN_ANOMALY":150.2811,"EPHEMERIS_TYPE":0,"NORAD_CAT_ID":63168,"ELEMENT_SET_NO":999,"REV_AT_EPOCH":7684,"BSTAR":0.00017102214,"MEAN_MOTION_DOT":0.00000123,"MEAN_MOTION_DDOT":0},{"OBJECT_NAME":"QIANFAN-83","OBJECT_ID":"2025-046L","EPOCH":"2026-07-18T05:26:59.082144","CLASSIFICATION_TYPE":"U","MEAN_MOTION":13.62051842,"ECCENTRICITY":0.00144094,"INCLINATION":88.9725,"RA_OF_ASC_NODE":296.7029,"ARG_OF_PERICENTER":183.7422,"MEAN_ANOMALY":176.363,"EPHEMERIS_TYPE":0,"NORAD_CAT_ID":63169,"ELEMENT_SET_NO":999,"REV_AT_EPOCH":7720,"BSTAR":0.00016011084,"MEAN_MOTION_DOT":0.00000136,"MEAN_MOTION_DDOT":0},{"OBJECT_NAME":"QIANFAN-84","OBJECT_ID":"2025-046M","EPOCH":"2026-07-18T05:22:06.225888","CLASSIFICATION_TYPE":"U","MEAN_MOTION":13.51045032,"ECCENTRICITY":0.00151786,"INCLINATION":88.9724,"RA_OF_ASC_NODE":297.4878,"ARG_OF_PERICENTER":208.2165,"MEAN_ANOMALY":151.8166,"EPHEMERIS_TYPE":0,"NORAD_CAT_ID":63170,"ELEMENT_SET_NO":999,"REV_AT_EPOCH":7676,"BSTAR":0.000064140418,"MEAN_MOTION_DOT":5.3e-7,"MEAN_MOTION_DDOT":0},{"OBJECT_NAME":"QIANFAN-85","OBJECT_ID":"2025-046N","EPOCH":"2026-07-18T07:02:34.276128","CLASSIFICATION_TYPE":"U","MEAN_MOTION":13.51016932,"ECCENTRICITY":0.00125652,"INCLINATION":88.9723,"RA_OF_ASC_NODE":297.3507,"ARG_OF_PERICENTER":208.8443,"MEAN_ANOMALY":151.2015,"EPHEMERIS_TYPE":0,"NORAD_CAT_ID":63171,"ELEMENT_SET_NO":999,"REV_AT_EPOCH":7684,"BSTAR":0.00015885668,"MEAN_MOTION_DOT":0.00000115,"MEAN_MOTION_DDOT":0},{"OBJECT_NAME":"QIANFAN-86","OBJECT_ID":"2025-046P","EPOCH":"2026-07-18T05:27:47.098080","CLASSIFICATION_TYPE":"U","MEAN_MOTION":13.5102444,"ECCENTRICITY":0.00102569,"INCLINATION":88.9726,"RA_OF_ASC_NODE":297.2248,"ARG_OF_PERICENTER":211.4611,"MEAN_ANOMALY":148.5928,"EPHEMERIS_TYPE":0,"NORAD_CAT_ID":63172,"ELEMENT_SET_NO":999,"REV_AT_EPOCH":7691,"BSTAR":0.00017872767,"MEAN_MOTION_DOT":0.00000127,"MEAN_MOTION_DDOT":0},{"OBJECT_NAME":"QIANFAN-87","OBJECT_ID":"2025-046Q","EPOCH":"2026-07-18T06:33:06.420672","CLASSIFICATION_TYPE":"U","MEAN_MOTION":13.51010105,"ECCENTRICITY":0.00109889,"INCLINATION":88.9722,"RA_OF_ASC_NODE":297.3236,"ARG_OF_PERICENTER":206.7717,"MEAN_ANOMALY":153.2868,"EPHEMERIS_TYPE":0,"NORAD_CAT_ID":63173,"ELEMENT_SET_NO":999,"REV_AT_EPOCH":7685,"BSTAR":0.00017616415,"MEAN_MOTION_DOT":0.00000126,"MEAN_MOTION_DDOT":0},{"OBJECT_NAME":"QIANFAN-88","OBJECT_ID":"2025-046R","EPOCH":"2026-07-18T06:56:46.610304","CLASSIFICATION_TYPE":"U","MEAN_MOTION":13.51017668,"ECCENTRICITY":0.00110894,"INCLINATION":88.9724,"RA_OF_ASC_NODE":297.2818,"ARG_OF_PERICENTER":216.0548,"MEAN_ANOMALY":143.9856,"EPHEMERIS_TYPE":0,"NORAD_CAT_ID":63174,"ELEMENT_SET_NO":999,"REV_AT_EPOCH":7688,"BSTAR":0.00015447466,"MEAN_MOTION_DOT":0.00000112,"MEAN_MOTION_DDOT":0},{"OBJECT_NAME":"QIANFAN-89","OBJECT_ID":"2025-046S","EPOCH":"2026-07-18T06:03:16.661952","CLASSIFICATION_TYPE":"U","MEAN_MOTION":13.51024847,"ECCENTRICITY":0.00159913,"INCLINATION":88.9724,"RA_OF_ASC_NODE":297.4746,"ARG_OF_PERICENTER":209.055,"MEAN_ANOMALY":150.9713,"EPHEMERIS_TYPE":0,"NORAD_CAT_ID":63175,"ELEMENT_SET_NO":999,"REV_AT_EPOCH":7677,"BSTAR":0.00015623222,"MEAN_MOTION_DOT":0.00000113,"MEAN_MOTION_DDOT":0},{"OBJECT_NAME":"QIANFAN-90","OBJECT_ID":"2025-046T","EPOCH":"2026-07-18T06:44:46.233024","CLASSIFICATION_TYPE":"U","MEAN_MOTION":13.51017312,"ECCENTRICITY":0.00130099,"INCLINATION":88.9725,"RA_OF_ASC_NODE":297.4446,"ARG_OF_PERICENTER":205.6786,"MEAN_ANOMALY":154.372,"EPHEMERIS_TYPE":0,"NORAD_CAT_ID":63176,"ELEMENT_SET_NO":999,"REV_AT_EPOCH":7679,"BSTAR":0.00016823006,"MEAN_MOTION_DOT":0.00000121,"MEAN_MOTION_DDOT":0},{"OBJECT_NAME":"QIANFAN-91","OBJECT_ID":"2025-233A","EPOCH":"2026-07-18T02:11:34.620288","CLASSIFICATION_TYPE":"U","MEAN_MOTION":13.51015154,"ECCENTRICITY":0.00021091,"INCLINATION":88.9981,"RA_OF_ASC_NODE":40.0624,"ARG_OF_PERICENTER":95.8146,"MEAN_ANOMALY":264.3246,"EPHEMERIS_TYPE":0,"NORAD_CAT_ID":66033,"ELEMENT_SET_NO":999,"REV_AT_EPOCH":3735,"BSTAR":0.000006435517,"MEAN_MOTION_DOT":1.6e-7,"MEAN_MOTION_DDOT":0},{"OBJECT_NAME":"QIANFAN-92","OBJECT_ID":"2025-233B","EPOCH":"2026-07-18T02:23:22.638912","CLASSIFICATION_TYPE":"U","MEAN_MOTION":13.51013511,"ECCENTRICITY":0.00019841,"INCLINATION":88.9964,"RA_OF_ASC_NODE":40.0283,"ARG_OF_PERICENTER":89.8494,"MEAN_ANOMALY":270.2884,"EPHEMERIS_TYPE":0,"NORAD_CAT_ID":66034,"ELEMENT_SET_NO":999,"REV_AT_EPOCH":3735,"BSTAR":0.000028309644,"MEAN_MOTION_DOT":3e-7,"MEAN_MOTION_DDOT":0},{"OBJECT_NAME":"QIANFAN-93","OBJECT_ID":"2025-233C","EPOCH":"2026-07-18T02:35:12.371712","CLASSIFICATION_TYPE":"U","MEAN_MOTION":13.51016896,"ECCENTRICITY":0.00020344,"INCLINATION":88.9991,"RA_OF_ASC_NODE":40.0877,"ARG_OF_PERICENTER":93.8706,"MEAN_ANOMALY":266.2678,"EPHEMERIS_TYPE":0,"NORAD_CAT_ID":66035,"ELEMENT_SET_NO":999,"REV_AT_EPOCH":3735,"BSTAR":0.000027186576,"MEAN_MOTION_DOT":3e-7,"MEAN_MOTION_DDOT":0},{"OBJECT_NAME":"QIANFAN-94","OBJECT_ID":"2025-233D","EPOCH":"2026-07-18T02:17:28.506912","CLASSIFICATION_TYPE":"U","MEAN_MOTION":13.51015847,"ECCENTRICITY":0.0002108,"INCLINATION":88.9988,"RA_OF_ASC_NODE":39.9912,"ARG_OF_PERICENTER":90.0235,"MEAN_ANOMALY":270.1158,"EPHEMERIS_TYPE":0,"NORAD_CAT_ID":66036,"ELEMENT_SET_NO":999,"REV_AT_EPOCH":3740,"BSTAR":0.000020858266,"MEAN_MOTION_DOT":2.5e-7,"MEAN_MOTION_DDOT":0},{"OBJECT_NAME":"QIANFAN-95","OBJECT_ID":"2025-233E","EPOCH":"2026-07-18T02:29:20.482656","CLASSIFICATION_TYPE":"U","MEAN_MOTION":13.510168,"ECCENTRICITY":0.0002216,"INCLINATION":88.9985,"RA_OF_ASC_NODE":39.5331,"ARG_OF_PERICENTER":93.6486,"MEAN_ANOMALY":266.4918,"EPHEMERIS_TYPE":0,"NORAD_CAT_ID":66037,"ELEMENT_SET_NO":999,"REV_AT_EPOCH":3765,"BSTAR":0.000032445871,"MEAN_MOTION_DOT":3.3e-7,"MEAN_MOTION_DDOT":0},{"OBJECT_NAME":"QIANFAN-96","OBJECT_ID":"2025-233F","EPOCH":"2026-07-18T06:38:12.331968","CLASSIFICATION_TYPE":"U","MEAN_MOTION":13.51015666,"ECCENTRICITY":0.00021253,"INCLINATION":88.9983,"RA_OF_ASC_NODE":40.0583,"ARG_OF_PERICENTER":96.2479,"MEAN_ANOMALY":263.8915,"EPHEMERIS_TYPE":0,"NORAD_CAT_ID":66038,"ELEMENT_SET_NO":999,"REV_AT_EPOCH":3737,"BSTAR":0.000014073226,"MEAN_MOTION_DOT":2.1e-7,"MEAN_MOTION_DDOT":0}]}
