QIANFAN-81              
1 63167U 25046J   26199.23581080  .00000120  00000+0  16781-3 0  9992
2 63167  88.9724 297.3098 0014402 204.3044 155.7430 13.51024726 76851
QIANFAN-82              
1 63168U 25046K   26199.26877326  .00000123  00000+0  17102-3 0  9998
2 63168  88.9724 297.3505 0012014 209.7658 150.2811 13.51019234 76842
QIANFAN-83              
1 63169U 25046L   26199.22707271  .00000136  00000+0  16011-3 0  9998
2 63169  88.9725 296.7029 0014409 183.7422 176.3630 13.62051842 77200
QIANFAN-84              
1 63170U 25046M   26199.22368317  .00000053  00000+0  64140-4 0  9999
2 63170  88.9724 297.4878 0015178 208.2165 151.8166 13.51045032 76766
QIANFAN-85              
1 63171U 25046N   26199.29345227  .00000115  00000+0  15886-3 0  9993
2 63171  88.9723 297.3507 0012565 208.8443 151.2015 13.51016932 76849
QIANFAN-86              
1 63172U 25046P   26199.22762845  .00000127  00000+0  17873-3 0  9997
2 63172  88.9726 297.2248 0010256 211.4611 148.5928 13.51024440 76919
QIANFAN-87              
1 63173U 25046Q   26199.27299098  .00000126  00000+0  17616-3 0  9992
2 63173  88.9722 297.3236 0010988 206.7717 153.2868 13.51010105 76852
QIANFAN-88              
1 63174U 25046R   26199.28942836  .00000112  00000+0  15447-3 0  9994
2 63174  88.9724 297.2818 0011089 216.0548 143.9856 13.51017668 76886
QIANFAN-89              
1 63175U 25046S   26199.25227618  .00000113  00000+0  15623-3 0  9993
2 63175  88.9724 297.4746 0015991 209.0550 150.9713 13.51024847 76775
QIANFAN-90              
1 63176U 25046T   26199.28109066  .00000121  00000+0  16823-3 0  9995
2 63176  88.9725 297.4446 0013009 205.6786 154.3720 13.51017312 76792
QIANFAN-91              
1 66033U 25233A   26199.09137292  .00000016  00000+0  64355-5 0  9997
2 66033  88.9981  40.0624 0002109  95.8146 264.3246 13.51015154 37355
QIANFAN-92              
1 66034U 25233B   26199.09956758  .00000030  00000+0  28310-4 0  9990
2 66034  88.9964  40.0283 0001984  89.8494 270.2884 13.51013511 37356
QIANFAN-93              
1 66035U 25233C   26199.10778208  .00000030  00000+0  27187-4 0  9996
2 66035  88.9991  40.0877 0002034  93.8706 266.2678 13.51016896 37359
QIANFAN-94              
1 66036U 25233D   26199.09546883  .00000025  00000+0  20858-4 0  9999
2 66036  88.9988  39.9912 0002108  90.0235 270.1158 13.51015847 37409
QIANFAN-95              
1 66037U 25233E   26199.10370929  .00000033  00000+0  32446-4 0  9993
2 66037  88.9985  39.5331 0002216  93.6486 266.4918 13.51016800 37654
QIANFAN-96              
1 66038U 25233F   26199.27653162  .00000021  00000+0  14073-4 0  9998
2 66038  88.9983  40.0583 0002125  96.2479 263.8915 13.51015666 37375
